{
    "total_count": 1943,
    "results": [
        {
            "name": "1 LT CHARLES W. WHITCOMB SCHOOL",
            "address": "25 UNION STREET",
            "zip": "01752",
            "zip4": "NOT AVAILABLE",
            "telephone": "(508) 460-3502",
            "city": "MARLBOROUGH",
            "state": "MA"
        },
        {
            "name": "A DREWICZ ELEMENTARY",
            "address": "34 HOOD STREET",
            "zip": "01905",
            "zip4": "NOT AVAILABLE",
            "telephone": "(781) 477-7350",
            "city": "LYNN",
            "state": "MA"
        },
        {
            "name": "A E ANGIER",
            "address": "1697 BEACON STREET",
            "zip": "02468",
            "zip4": "NOT AVAILABLE",
            "telephone": "(617) 559-9300",
            "city": "WABAN",
            "state": "MA"
        },
        {
            "name": "A F MALONEY",
            "address": "200 LINCOLN STREET",
            "zip": "01504",
            "zip4": "NOT AVAILABLE",
            "telephone": "(508) 876-0119",
            "city": "BLACKSTONE",
            "state": "MA"
        },
        {
            "name": "A. C. WHELAN ELEMENTARY SCHOOL",
            "address": "107 NEWHALL STREET",
            "zip": "02151",
            "zip4": "NOT AVAILABLE",
            "telephone": "(781) 388-7510",
            "city": "REVERE",
            "state": "MA"
        },
        {
            "name": "A. IRVIN STUDLEY ELEMENTARY SCHOOL",
            "address": "299 RATHBUN WILLARD DRIVE",
            "zip": "02703",
            "zip4": "NOT AVAILABLE",
            "telephone": "(508) 222-2621",
            "city": "ATTLEBORO",
            "state": "MA"
        },
        {
            "name": "ABBOT ELEMENTARY",
            "address": "25 DEPOT STREET",
            "zip": "01886",
            "zip4": "NOT AVAILABLE",
            "telephone": "(978) 692-5580",
            "city": "WESTFORD",
            "state": "MA"
        },
        {
            "name": "ABBOTT MEMORIAL",
            "address": "56 NORTH COUNTY RD",
            "zip": "01247",
            "zip4": "NOT AVAILABLE",
            "telephone": "(413) 664-6023",
            "city": "FLORIDA",
            "state": "MA"
        },
        {
            "name": "ABBY KELLEY FOSTER CHARTER PUBLIC SCHOOL",
            "address": "10 NEW BOND STREET",
            "zip": "01606",
            "zip4": "NOT AVAILABLE",
            "telephone": "(508) 854-8400",
            "city": "WORCESTER",
            "state": "MA"
        },
        {
            "name": "ABIGAIL ADAMS MIDDLE SCHOOL",
            "address": "89 MIDDLE STREET",
            "zip": "02189",
            "zip4": "NOT AVAILABLE",
            "telephone": "(781) 335-1100",
            "city": "EAST WEYMOUTH",
            "state": "MA"
        },
        {
            "name": "ABIGAIL ADAMS MIDDLE SCHOOL",
            "address": "89 MIDDLE STREET",
            "zip": "02189",
            "zip4": "NOT AVAILABLE",
            "telephone": "(781) 335-1100",
            "city": "EAST WEYMOUTH",
            "state": "MA"
        },
        {
            "name": "ABINGTON EARLY EDUCATION PROGRAM",
            "address": "201 GLINIEWICZ WAY",
            "zip": "02351",
            "zip4": "NOT AVAILABLE",
            "telephone": "(781) 982-2195",
            "city": "ABINGTON",
            "state": "MA"
        },
        {
            "name": "ABINGTON HIGH",
            "address": "201 GLINIEWICZ WAY",
            "zip": "02351",
            "zip4": "NOT AVAILABLE",
            "telephone": "(781) 982-2160",
            "city": "ABINGTON",
            "state": "MA"
        },
        {
            "name": "ABINGTON MIDDLE SCHOOL",
            "address": "201 GLINIEWICZ WAY",
            "zip": "02351",
            "zip4": "NOT AVAILABLE",
            "telephone": "(781) 982-2170",
            "city": "ABINGTON",
            "state": "MA"
        },
        {
            "name": "ABNER GIBBS",
            "address": "50 WEST SILVER STREET",
            "zip": "01085",
            "zip4": "NOT AVAILABLE",
            "telephone": "(413) 572-6418",
            "city": "WESTFIELD",
            "state": "MA"
        },
        {
            "name": "ABORN",
            "address": "409 EASTERN AVENUE",
            "zip": "01902",
            "zip4": "NOT AVAILABLE",
            "telephone": "(781) 477-7320",
            "city": "LYNN",
            "state": "MA"
        },
        {
            "name": "ABRAHAM LINCOLN",
            "address": "68 TUCKERMAN STREET",
            "zip": "02151",
            "zip4": "NOT AVAILABLE",
            "telephone": "(781) 286-8270",
            "city": "REVERE",
            "state": "MA"
        },
        {
            "name": "ABRAHAM LINCOLN",
            "address": "300 CHELMSFORD STREET",
            "zip": "01851",
            "zip4": "NOT AVAILABLE",
            "telephone": "(978) 937-2846",
            "city": "LOWELL",
            "state": "MA"
        },
        {
            "name": "ABRAHAM LINCOLN",
            "address": "445 ASHLEY BLVD",
            "zip": "02745",
            "zip4": "NOT AVAILABLE",
            "telephone": "(508) 997-4511",
            "city": "NEW BEDFORD",
            "state": "MA"
        },
        {
            "name": "ACADEMY AVENUE",
            "address": "94 ACADEMY AVENUE",
            "zip": "02189",
            "zip4": "NOT AVAILABLE",
            "telephone": "(781) 335-4717",
            "city": "WEYMOUTH",
            "state": "MA"
        },
        {
            "name": "ACADEMY OF THE PACIFIC RIM CHARTER PUBLIC SCHOOL",
            "address": "1 WESTINGHOUSE PLAZA",
            "zip": "02136",
            "zip4": "NOT AVAILABLE",
            "telephone": "(617) 361-0050",
            "city": "HYDE PARK",
            "state": "MA"
        },
        {
            "name": "ACE PROGRAM",
            "address": "9 CARBUNCLE DRIVE",
            "zip": "01540",
            "zip4": "NOT AVAILABLE",
            "telephone": "(508) 987-6090",
            "city": "OXFORD",
            "state": "MA"
        },
        {
            "name": "ACTON-BOXBOROUGH REGIONAL HIGH",
            "address": "36 CHARTER RD",
            "zip": "01720",
            "zip4": "NOT AVAILABLE",
            "telephone": "(978) 264-4700",
            "city": "ACTON",
            "state": "MA"
        },
        {
            "name": "ACUSHNET ELEMENTARY SCHOOL",
            "address": "800 MIDDLE ROAD",
            "zip": "02743",
            "zip4": "NOT AVAILABLE",
            "telephone": "(508) 998-0255",
            "city": "ACUSHNET",
            "state": "MA"
        },
        {
            "name": "ADAMS SCHOOL",
            "address": "78 TILESTON STREET",
            "zip": "02149",
            "zip4": "NOT AVAILABLE",
            "telephone": "(617) 394-2400",
            "city": "EVERETT",
            "state": "MA"
        },
        {
            "name": "ADVANCED COMMUNITY EXPERIENCE PROGRAM",
            "address": "1025 MASSACHUSETTS AVENUE",
            "zip": "01462",
            "zip4": "NOT AVAILABLE",
            "telephone": "(978) 582-4100",
            "city": "LUNENBURG",
            "state": "MA"
        },
        {
            "name": "ADVANCED MATH AND SCIENCE ACADEMY CHARTER SCHOOL",
            "address": "201 FOREST STREET",
            "zip": "01752",
            "zip4": "NOT AVAILABLE",
            "telephone": "(508) 597-2400",
            "city": "MARLBOROUGH",
            "state": "MA"
        },
        {
            "name": "AGAWAM EARLY CHILDHOOD CENTER",
            "address": "108 PERRY LANE",
            "zip": "01001",
            "zip4": "NOT AVAILABLE",
            "telephone": "(413) 821-0598",
            "city": "AGAWAM",
            "state": "MA"
        },
        {
            "name": "AGAWAM HIGH",
            "address": "760 COOPER STREET",
            "zip": "01001",
            "zip4": "NOT AVAILABLE",
            "telephone": "(413) 821-0521",
            "city": "AGAWAM",
            "state": "MA"
        },
        {
            "name": "AGAWAM JUNIOR HIGH",
            "address": "1305 SPRINGFIELD STREET",
            "zip": "01030",
            "zip4": "NOT AVAILABLE",
            "telephone": "(413) 821-0561",
            "city": "FEEDING HILLS",
            "state": "MA"
        },
        {
            "name": "ALBERT F FORD MIDDLE SCHOOL",
            "address": "708 MIDDLE ROAD",
            "zip": "02743",
            "zip4": "NOT AVAILABLE",
            "telephone": "(508) 998-0265",
            "city": "ACUSHNET",
            "state": "MA"
        },
        {
            "name": "ALBERT F. ARGENZIANO SCHOOL AT LINCOLN PARK",
            "address": "290 WASHINGTON STREET",
            "zip": "02143",
            "zip4": "NOT AVAILABLE",
            "telephone": "(617) 629-5460",
            "city": "SOMERVILLE",
            "state": "MA"
        },
        {
            "name": "ALBERT S. WOODWARD MEMORIAL SCHOOL",
            "address": "28 CORDAVILLE ROAD",
            "zip": "01772",
            "zip4": "NOT AVAILABLE",
            "telephone": "(508) 229-1250",
            "city": "SOUTHBOROUGH",
            "state": "MA"
        },
        {
            "name": "ALCOTT",
            "address": "93 LAUREL STREET",
            "zip": "01742",
            "zip4": "NOT AVAILABLE",
            "telephone": "(978) 318-9544",
            "city": "CONCORD",
            "state": "MA"
        },
        {
            "name": "ALDEN SCHOOL",
            "address": "75 ALDEN STREET",
            "zip": "02332",
            "zip4": "NOT AVAILABLE",
            "telephone": "(781) 934-7630",
            "city": "DUXBURY",
            "state": "MA"
        },
        {
            "name": "ALEXANDER B BRUCE",
            "address": "135 BUTLER STREET",
            "zip": "01841",
            "zip4": "NOT AVAILABLE",
            "telephone": "(978) 975-5935",
            "city": "LAWRENCE",
            "state": "MA"
        },
        {
            "name": "ALFRED G. ZANETTI MONTESSORI MAGNET SCHOOL",
            "address": "474 ARMORY ST",
            "zip": "01104",
            "zip4": "NOT AVAILABLE",
            "telephone": "(413) 787-7400",
            "city": "SPRINGFIELD",
            "state": "MA"
        },
        {
            "name": "ALFRED J GOMES",
            "address": "286 S SECOND STREET",
            "zip": "02740",
            "zip4": "NOT AVAILABLE",
            "telephone": "(508) 997-4511",
            "city": "NEW BEDFORD",
            "state": "MA"
        },
        {
            "name": "ALFRED M CHAFFEE",
            "address": "9 CLOVER STREET",
            "zip": "01540",
            "zip4": "NOT AVAILABLE",
            "telephone": "(508) 987-6057",
            "city": "OXFORD",
            "state": "MA"
        },
        {
            "name": "ALGONQUIN REGIONAL HIGH",
            "address": "79 BARTLETT STREET",
            "zip": "01532",
            "zip4": "NOT AVAILABLE",
            "telephone": "(508) 351-7010",
            "city": "NORTHBOROUGH",
            "state": "MA"
        },
        {
            "name": "ALICE A MACOMBER",
            "address": "154 GIFFORD ROAD",
            "zip": "02790",
            "zip4": "NOT AVAILABLE",
            "telephone": "(508) 678-8671",
            "city": "WESTPORT",
            "state": "MA"
        },
        {
            "name": "ALICE B BEAL ELEMENTARY",
            "address": "285 TIFFANY STREET",
            "zip": "01108",
            "zip4": "NOT AVAILABLE",
            "telephone": "(413) 787-7544",
            "city": "SPRINGFIELD",
            "state": "MA"
        },
        {
            "name": "ALICE M BARROWS",
            "address": "16 EDGEMONT AVENUE",
            "zip": "01867",
            "zip4": "NOT AVAILABLE",
            "telephone": "(781) 942-9166",
            "city": "READING",
            "state": "MA"
        },
        {
            "name": "ALLENDALE",
            "address": "180 CONNECTICUT AVENUE",
            "zip": "01201",
            "zip4": "NOT AVAILABLE",
            "telephone": "(413) 448-9650",
            "city": "PITTSFIELD",
            "state": "MA"
        },
        {
            "name": "ALMA DEL MAR CHARTER SCHOOL",
            "address": "515 BELLEVILLE AVE",
            "zip": "02746",
            "zip4": "NOT AVAILABLE",
            "telephone": "(774) 206-6827",
            "city": "NEW BEDFORD",
            "state": "MA"
        },
        {
            "name": "AMBROSE ELEMENTARY",
            "address": "27 HIGH STREET",
            "zip": "01890",
            "zip4": "NOT AVAILABLE",
            "telephone": "(781) 721-7012",
            "city": "WINCHESTER",
            "state": "MA"
        },
        {
            "name": "AMELIO DELLA CHIESA EARLY CHILDHOOD CENTER",
            "address": "100 BROOKS AVENUE",
            "zip": "02169",
            "zip4": "NOT AVAILABLE",
            "telephone": "(617) 984-8742",
            "city": "QUINCY",
            "state": "MA"
        },
        {
            "name": "AMESBURY ELEMENTARY",
            "address": "20 SOUTH HAMPTON ROAD",
            "zip": "01913",
            "zip4": "NOT AVAILABLE",
            "telephone": "(978) 388-3659",
            "city": "AMESBURY",
            "state": "MA"
        },
        {
            "name": "AMESBURY HIGH",
            "address": "5 HIGHLAND STREET",
            "zip": "01913",
            "zip4": "NOT AVAILABLE",
            "telephone": "(978) 388-4800",
            "city": "AMESBURY",
            "state": "MA"
        },
        {
            "name": "AMESBURY INNOVATION HIGH SCHOOL",
            "address": "71 FRIEND STREET",
            "zip": "01913",
            "zip4": "NOT AVAILABLE",
            "telephone": "(978) 388-8037",
            "city": "AMESBURY",
            "state": "MA"
        }
    ]
}